[{"OBJECT_NAME":"JILIN-1 08","OBJECT_ID":"2018-008F","EPOCH":"2026-03-09T22:37:53.184288","MEAN_MOTION":15.32205976,"ECCENTRICITY":0.00081321,"INCLINATION":97.1902,"RA_OF_ASC_NODE":90.9961,"ARG_OF_PERICENTER":76.0646,"MEAN_ANOMALY":284.15,"EPHEMERIS_TYPE":0,"CLASSIFICATION_TYPE":"U","NORAD_CAT_ID":43160,"ELEMENT_SET_NO":999,"REV_AT_EPOCH":44974,"BSTAR":0.00036689195,"MEAN_MOTION_DOT":0.00011349,"MEAN_MOTION_DDOT":0},{"OBJECT_NAME":"STARLINK-33937","OBJECT_ID":"2025-087H","EPOCH":"2026-03-09T16:33:44.168256","MEAN_MOTION":15.30203555,"ECCENTRICITY":9.082e-5,"INCLINATION":53.1591,"RA_OF_ASC_NODE":219.2719,"ARG_OF_PERICENTER":66.2001,"MEAN_ANOMALY":293.9094,"EPHEMERIS_TYPE":0,"CLASSIFICATION_TYPE":"U","NORAD_CAT_ID":63704,"ELEMENT_SET_NO":999,"REV_AT_EPOCH":4920,"BSTAR":0.00094868307,"MEAN_MOTION_DOT":0.00027846,"MEAN_MOTION_DDOT":0}]
